[{"OBJECT_NAME":"STARLINK-35911","OBJECT_ID":"2026-041M","EPOCH":"2026-03-06T00:59:41.609184","MEAN_MOTION":16.03403245,"ECCENTRICITY":7.758e-5,"INCLINATION":53.1606,"RA_OF_ASC_NODE":80.9777,"ARG_OF_PERICENTER":102.2522,"MEAN_ANOMALY":257.8597,"EPHEMERIS_TYPE":0,"CLASSIFICATION_TYPE":"U","NORAD_CAT_ID":68051,"ELEMENT_SET_NO":999,"REV_AT_EPOCH":63,"BSTAR":-0.00045294916,"MEAN_MOTION_DOT":-0.00294472,"MEAN_MOTION_DDOT":4.3323052e-5},{"OBJECT_NAME":"STARLINK-35808","OBJECT_ID":"2026-041N","EPOCH":"2026-03-06T00:59:29.614272","MEAN_MOTION":16.03503394,"ECCENTRICITY":0.00017528,"INCLINATION":53.1608,"RA_OF_ASC_NODE":80.9771,"ARG_OF_PERICENTER":134.1273,"MEAN_ANOMALY":225.9904,"EPHEMERIS_TYPE":0,"CLASSIFICATION_TYPE":"U","NORAD_CAT_ID":68052,"ELEMENT_SET_NO":999,"REV_AT_EPOCH":63,"BSTAR":-0.0004801718,"MEAN_MOTION_DOT":-0.00313842,"MEAN_MOTION_DDOT":4.7633571e-5},{"OBJECT_NAME":"STARLINK-36919","OBJECT_ID":"2026-041P","EPOCH":"2026-03-06T00:59:16.691424","MEAN_MOTION":16.03627286,"ECCENTRICITY":0.0001531,"INCLINATION":53.1609,"RA_OF_ASC_NODE":80.976,"ARG_OF_PERICENTER":134.277,"MEAN_ANOMALY":225.8388,"EPHEMERIS_TYPE":0,"CLASSIFICATION_TYPE":"U","NORAD_CAT_ID":68053,"ELEMENT_SET_NO":999,"REV_AT_EPOCH":63,"BSTAR":-0.00043492457,"MEAN_MOTION_DOT":-0.00286719,"MEAN_MOTION_DDOT":4.1779914e-5},{"OBJECT_NAME":"STARLINK-36924","OBJECT_ID":"2026-041Q","EPOCH":"2026-03-05T21:59:23.618976","MEAN_MOTION":16.04306352,"ECCENTRICITY":0.00039813,"INCLINATION":53.1613,"RA_OF_ASC_NODE":81.6202,"ARG_OF_PERICENTER":185.7535,"MEAN_ANOMALY":174.3453,"EPHEMERIS_TYPE":0,"CLASSIFICATION_TYPE":"U","NORAD_CAT_ID":68054,"ELEMENT_SET_NO":999,"REV_AT_EPOCH":61,"BSTAR":0.00019704536,"MEAN_MOTION_DOT":0.00130205,"MEAN_MOTION_DDOT":1.8871136e-5},{"OBJECT_NAME":"STARLINK-35998","OBJECT_ID":"2026-041R","EPOCH":"2026-03-06T00:59:05.484480","MEAN_MOTION":16.03749796,"ECCENTRICITY":8.925e-5,"INCLINATION":53.1607,"RA_OF_ASC_NODE":80.9748,"ARG_OF_PERICENTER":123.1638,"MEAN_ANOMALY":236.9481,"EPHEMERIS_TYPE":0,"CLASSIFICATION_TYPE":"U","NORAD_CAT_ID":68055,"ELEMENT_SET_NO":999,"REV_AT_EPOCH":63,"BSTAR":-0.00044522906,"MEAN_MOTION_DOT":-0.00295535,"MEAN_MOTION_DDOT":4.3701815e-5},{"OBJECT_NAME":"STARLINK-36845","OBJECT_ID":"2026-041S","EPOCH":"2026-03-05T23:28:57.295488","MEAN_MOTION":16.04013847,"ECCENTRICITY":0.00034266,"INCLINATION":53.1613,"RA_OF_ASC_NODE":81.2963,"ARG_OF_PERICENTER":344.2338,"MEAN_ANOMALY":15.8587,"EPHEMERIS_TYPE":0,"CLASSIFICATION_TYPE":"U","NORAD_CAT_ID":68056,"ELEMENT_SET_NO":999,"REV_AT_EPOCH":62,"BSTAR":-0.00045641803,"MEAN_MOTION_DOT":-0.00307885,"MEAN_MOTION_DDOT":4.6532979e-5},{"OBJECT_NAME":"STARLINK-36954","OBJECT_ID":"2026-041T","EPOCH":"2026-03-05T23:28:46.424640","MEAN_MOTION":16.04134131,"ECCENTRICITY":0.00041292,"INCLINATION":53.1613,"RA_OF_ASC_NODE":81.2955,"ARG_OF_PERICENTER":349.7622,"MEAN_ANOMALY":10.3326,"EPHEMERIS_TYPE":0,"CLASSIFICATION_TYPE":"U","NORAD_CAT_ID":68057,"ELEMENT_SET_NO":999,"REV_AT_EPOCH":62,"BSTAR":-0.00050559879,"MEAN_MOTION_DOT":-0.00343211,"MEAN_MOTION_DDOT":5.4941963e-5},{"OBJECT_NAME":"STARLINK-36899","OBJECT_ID":"2026-041U","EPOCH":"2026-03-06T00:58:18.934752","MEAN_MOTION":16.04255728,"ECCENTRICITY":0.000425,"INCLINATION":53.161,"RA_OF_ASC_NODE":80.9714,"ARG_OF_PERICENTER":347.8885,"MEAN_ANOMALY":12.2045,"EPHEMERIS_TYPE":0,"CLASSIFICATION_TYPE":"U","NORAD_CAT_ID":68058,"ELEMENT_SET_NO":999,"REV_AT_EPOCH":63,"BSTAR":0.00012232536,"MEAN_MOTION_DOT":0.00079229,"MEAN_MOTION_DDOT":1.4223698e-5},{"OBJECT_NAME":"STARLINK-36917","OBJECT_ID":"2026-041V","EPOCH":"2026-03-05T23:28:23.195136","MEAN_MOTION":16.04399058,"ECCENTRICITY":0.0003337,"INCLINATION":53.1613,"RA_OF_ASC_NODE":81.294,"ARG_OF_PERICENTER":352.4066,"MEAN_ANOMALY":7.6916,"EPHEMERIS_TYPE":0,"CLASSIFICATION_TYPE":"U","NORAD_CAT_ID":68059,"ELEMENT_SET_NO":999,"REV_AT_EPOCH":62,"BSTAR":-0.00044575118,"MEAN_MOTION_DOT":-0.00307785,"MEAN_MOTION_DDOT":4.6695067e-5},{"OBJECT_NAME":"STARLINK-36959","OBJECT_ID":"2026-041W","EPOCH":"2026-03-06T00:57:55.063296","MEAN_MOTION":16.04473174,"ECCENTRICITY":0.00010254,"INCLINATION":53.1607,"RA_OF_ASC_NODE":80.9694,"ARG_OF_PERICENTER":130.1464,"MEAN_ANOMALY":229.9659,"EPHEMERIS_TYPE":0,"CLASSIFICATION_TYPE":"U","NORAD_CAT_ID":68060,"ELEMENT_SET_NO":999,"REV_AT_EPOCH":63,"BSTAR":-0.00013520749,"MEAN_MOTION_DOT":-0.00096272,"MEAN_MOTION_DDOT":1.4821021e-5},{"OBJECT_NAME":"STARLINK-36915","OBJECT_ID":"2026-041X","EPOCH":"2026-03-06T00:57:43.158240","MEAN_MOTION":16.04594639,"ECCENTRICITY":0.00018005,"INCLINATION":53.1605,"RA_OF_ASC_NODE":80.9687,"ARG_OF_PERICENTER":129.5685,"MEAN_ANOMALY":230.5507,"EPHEMERIS_TYPE":0,"CLASSIFICATION_TYPE":"U","NORAD_CAT_ID":68061,"ELEMENT_SET_NO":999,"REV_AT_EPOCH":63,"BSTAR":-6.516374e-5,"MEAN_MOTION_DOT":-0.00048608,"MEAN_MOTION_DDOT":1.2219042e-5},{"OBJECT_NAME":"STARLINK-36952","OBJECT_ID":"2026-041Y","EPOCH":"2026-03-06T00:57:30.538656","MEAN_MOTION":16.04665161,"ECCENTRICITY":0.00012211,"INCLINATION":53.1607,"RA_OF_ASC_NODE":80.9678,"ARG_OF_PERICENTER":120.0636,"MEAN_ANOMALY":240.0519,"EPHEMERIS_TYPE":0,"CLASSIFICATION_TYPE":"U","NORAD_CAT_ID":68062,"ELEMENT_SET_NO":999,"REV_AT_EPOCH":63,"BSTAR":-0.00035755174,"MEAN_MOTION_DOT":-0.00251472,"MEAN_MOTION_DDOT":3.5185473e-5},{"OBJECT_NAME":"STARLINK-37000","OBJECT_ID":"2026-041Z","EPOCH":"2026-03-05T23:27:36.648864","MEAN_MOTION":16.04881912,"ECCENTRICITY":0.00021984,"INCLINATION":53.161,"RA_OF_ASC_NODE":81.29,"ARG_OF_PERICENTER":3.6638,"MEAN_ANOMALY":356.4411,"EPHEMERIS_TYPE":0,"CLASSIFICATION_TYPE":"U","NORAD_CAT_ID":68063,"ELEMENT_SET_NO":999,"REV_AT_EPOCH":62,"BSTAR":-0.00034595039,"MEAN_MOTION_DOT":-0.00246685,"MEAN_MOTION_DDOT":3.4367488e-5},{"OBJECT_NAME":"STARLINK-36996","OBJECT_ID":"2026-041AA","EPOCH":"2026-03-05T23:27:23.825376","MEAN_MOTION":16.05004029,"ECCENTRICITY":0.00034251,"INCLINATION":53.1612,"RA_OF_ASC_NODE":81.2887,"ARG_OF_PERICENTER":345.9944,"MEAN_ANOMALY":14.0993,"EPHEMERIS_TYPE":0,"CLASSIFICATION_TYPE":"U","NORAD_CAT_ID":68064,"ELEMENT_SET_NO":999,"REV_AT_EPOCH":62,"BSTAR":-0.00037423057,"MEAN_MOTION_DOT":-0.00268635,"MEAN_MOTION_DDOT":3.8627516e-5},{"OBJECT_NAME":"STARLINK-36836","OBJECT_ID":"2026-041AB","EPOCH":"2026-03-05T23:27:01.200672","MEAN_MOTION":16.0522058,"ECCENTRICITY":0.00036126,"INCLINATION":53.1613,"RA_OF_ASC_NODE":81.2871,"ARG_OF_PERICENTER":348.8042,"MEAN_ANOMALY":11.291,"EPHEMERIS_TYPE":0,"CLASSIFICATION_TYPE":"U","NORAD_CAT_ID":68065,"ELEMENT_SET_NO":999,"REV_AT_EPOCH":62,"BSTAR":-0.00039890301,"MEAN_MOTION_DOT":-0.00289896,"MEAN_MOTION_DDOT":4.3131277e-5},{"OBJECT_NAME":"STARLINK-36976","OBJECT_ID":"2026-041AC","EPOCH":"2026-03-05T23:26:48.832512","MEAN_MOTION":16.05333814,"ECCENTRICITY":0.00039873,"INCLINATION":53.161,"RA_OF_ASC_NODE":81.2858,"ARG_OF_PERICENTER":346.1836,"MEAN_ANOMALY":13.9087,"EPHEMERIS_TYPE":0,"CLASSIFICATION_TYPE":"U","NORAD_CAT_ID":68066,"ELEMENT_SET_NO":999,"REV_AT_EPOCH":62,"BSTAR":-0.00036858145,"MEAN_MOTION_DOT":-0.00270054,"MEAN_MOTION_DDOT":3.9039295e-5},{"OBJECT_NAME":"STARLINK-36929","OBJECT_ID":"2026-041AD","EPOCH":"2026-03-06T00:56:51.679392","MEAN_MOTION":16.05126047,"ECCENTRICITY":0.00031233,"INCLINATION":53.161,"RA_OF_ASC_NODE":80.9643,"ARG_OF_PERICENTER":346.274,"MEAN_ANOMALY":13.8208,"EPHEMERIS_TYPE":0,"CLASSIFICATION_TYPE":"U","NORAD_CAT_ID":68067,"ELEMENT_SET_NO":999,"REV_AT_EPOCH":63,"BSTAR":0.00013768299,"MEAN_MOTION_DOT":0.00094651,"MEAN_MOTION_DDOT":1.546245e-5},{"OBJECT_NAME":"STARLINK-36990","OBJECT_ID":"2026-041AE","EPOCH":"2026-03-05T23:26:35.927808","MEAN_MOTION":16.05492492,"ECCENTRICITY":0.00028016,"INCLINATION":53.1611,"RA_OF_ASC_NODE":81.2849,"ARG_OF_PERICENTER":356.1667,"MEAN_ANOMALY":3.9345,"EPHEMERIS_TYPE":0,"CLASSIFICATION_TYPE":"U","NORAD_CAT_ID":68068,"ELEMENT_SET_NO":999,"REV_AT_EPOCH":62,"BSTAR":-0.00042000498,"MEAN_MOTION_DOT":-0.00310003,"MEAN_MOTION_DDOT":4.7735466e-5},{"OBJECT_NAME":"GLOBAL-34","OBJECT_ID":"2026-043A","EPOCH":"2026-03-06T11:23:31.627104","MEAN_MOTION":15.31392628,"ECCENTRICITY":0.00070072,"INCLINATION":42.0208,"RA_OF_ASC_NODE":94.0551,"ARG_OF_PERICENTER":273.6929,"MEAN_ANOMALY":86.3107,"EPHEMERIS_TYPE":0,"CLASSIFICATION_TYPE":"U","NORAD_CAT_ID":68098,"ELEMENT_SET_NO":999,"REV_AT_EPOCH":7,"BSTAR":0.00036504235,"MEAN_MOTION_DOT":0.00011078,"MEAN_MOTION_DDOT":0},{"OBJECT_NAME":"ELECTRON R/B","OBJECT_ID":"2026-043B","EPOCH":"2026-03-06T12:34:12.235872","MEAN_MOTION":15.81395554,"ECCENTRICITY":0.02186544,"INCLINATION":42.0153,"RA_OF_ASC_NODE":93.5102,"ARG_OF_PERICENTER":270.0677,"MEAN_ANOMALY":87.5125,"EPHEMERIS_TYPE":0,"CLASSIFICATION_TYPE":"U","NORAD_CAT_ID":68099,"ELEMENT_SET_NO":999,"REV_AT_EPOCH":8,"BSTAR":0.0013220512,"MEAN_MOTION_DOT":0.01929023,"MEAN_MOTION_DDOT":7.256339e-6}]
